[Satellite]
VERSION=1.1
NAME=MOLNIYA 1-36
NICKNAME=MOLNIYA 1-36
TLE1=1 09880U 77021A   17185.03373609 -.00000527  00000-0 -33595-2 0  9998
TLE2=2 09880  61.7208 193.4463 7278575 268.1170  15.3520  2.00871767193105
